street,city,postalCode,username
11891 Mockingbird Alley,Prachamtakham,25130,ksevitt0
65937 Corry Place,Nancun,,dshipsey1
32125 Hazelcrest Court,Nariño,252837,bblare2
0692 Shelley Center,Šenov,739 34,lpetrelli3
42880 Duke Circle,Palaran,,ffeeham4
21805 Montana Point,Malkā,,rthunnercliff5
8296 Arrowood Way,Jetis,,gconaghy6
4198 Elka Terrace,Lunsar,,etommasuzzi7
717 Tomscot Trail,Mariatana,,jmochar8
14 Ramsey Plaza,Aveiras de Cima,2050-065,hmuckley9
84314 Dwight Crossing,Baruta,,kkemmisha
86 Merchant Avenue,Huichang,,htrevanceb
58497 Eastlawn Plaza,Tayum,2803,mpennonic
3302 Maywood Road,Goundam,,jabrahmd
82 Vernon Circle,Campo Largo,83600-000,jivantsove
70478 Northland Park,Barbacoas,,lmurtaghf
0 Delaware Junction,Songwon,,uhorderg
148 Monument Court,Linggamanik,,hkitchinghamh
4 Schmedeman Plaza,Santa Cecilia,48744,vmoseleyi
8381 Pierstorff Plaza,Strängnäs,645 32,thookj
5 Colorado Pass,Jagna,6308,ctaffarellok
90634 West Trail,Jiangzhou,,iguerolal
826 Sheridan Avenue,Samothráki,,rheartm
40333 Tony Place,Xixia,,dwinsern
87509 Kensington Street,Infonavit,79960,cbealo
9 Forest Dale Circle,Sumberrejo,,bdulintyp
04 Fairview Road,Aubergenville,78415 CEDEX,bkirkbrideq
50020 Rutledge Street,Jiangkou,,dtebbothr
8737 Debra Park,Tilburg,5019,nheggisons
76 Stuart Crossing,Lons-le-Saunier,39029 CEDEX,gpeasgoodt
81398 Ruskin Way,Nantes,44004 CEDEX 1,csokellu
7886 Hanson Street,Atimonan,4331,jlillicropv
691 Hoffman Place,Basel,4024,spybworthw
1 Grasskamp Trail,Ea T’ling,,rlosebiex
86 Sage Street,Petawawa,K8H,sbeaty
161 Clemons Junction,Capela,4960-320,khastewellz
187 Eagan Pass,Longzhou,,carmstrong10
202 Gerald Parkway,Leku,,javery11
9 Leroy Court,Itanhaém,11740-000,bweldrick12
25136 Butterfield Junction,Järfälla,175 61,ibuck13
049 Service Way,Savannah,31422,kgateshill14
54 Loftsgordon Drive,Manglid,,dpratton15
80 Blackbird Plaza,Cilimus Kulon,,wscrogges16
67994 Prairieview Way,Zruč nad Sázavou,285 22,jratley17
5 High Crossing Trail,Qasr Abu Hadi,,jhayles18
5 Little Fleur Avenue,Fougamou,,csteers19
785 Leroy Way,Dzuunmod,,fpittendreigh1a
8518 Mandrake Crossing,Caibiran,6548,sarrighini1b
428 Lake View Avenue,Sagrada Familia,4507,tmuselli1c
1 Eastwood Junction,Rajūzah,,rsamuel1d
2205 Goodland Plaza,Albardón,5419,nlangworthy1e
1064 Golden Leaf Drive,Halat,,btoor1f
5 Haas Pass,Sarykemer,,cmccuffie1g
50 Ronald Regan Center,Menghe,,mblown1h
049 Commercial Park,Tolbazy,453480,dparratt1i
45428 Leroy Center,Luleå,974 42,iimesson1j
8 Summerview Avenue,Criuleni,MD-4801,klatour1k
09437 Ridge Oak Trail,Erfangping,,fjerratsch1l
07292 Clarendon Lane,Sukhothai,75120,eolliff1m
0706 Sherman Crossing,Portela,6100-460,cmcnirlan1n
799 Dovetail Point,Mina Clavero,5889,hdalli1o
4 Pawling Alley,Salinggara,,mdallinder1p
66 Thackeray Junction,Dallas,75210,msmogur1q
010 Lighthouse Bay Park,Chyšky,398 53,dalday1r
6 Melvin Center,Tacheng,,hshallo1s
6 Oakridge Plaza,Fucun,,obrandenberg1t
17 Sundown Crossing,Yukhnov,249929,ljobbings1u
304 Westridge Street,Coyah,,tlewknor1v
11 Lotheville Point,Kanshan,,rspykins1w
21843 Summer Ridge Terrace,Kolkhozobod,,acamois1x
2 Washington Crossing,Arranhó,2630-015,dmcmeekan1y
82 Utah Avenue,Turi,,hrosnau1z
3 New Castle Crossing,Jianshe,,bconibear20
89760 Muir Parkway,San Antonio,78225,skhristyukhin21
50129 Haas Street,Taznakht,,btoffalo22
1142 Sugar Plaza,Jiangcun,,cdhooghe23
9578 Manitowish Crossing,Rybatskoye,196851,ttonbye24
076 Sutherland Avenue,Mingyuedian,,tprobets25
27849 Monument Plaza,Belköl,,hdonativo26
014 Hovde Drive,Houping,,lbowart27
0 Dapin Street,Manalu,,amuirhead28
126 Clarendon Alley,Kyaikkami,,nwickendon29
25094 Fisk Trail,Santa Marta,,lmellmoth2a
92 Mendota Park,Xiatuanpu,,bnehlsen2b
15 Almo Trail,Padre Burgos,6602,cmurrey2c
6 Ridge Oak Way,Gununganyar,,demons2d
8 Maywood Street,Baños,,lflower2e
17508 Scoville Way,Helmas,,mcluff2f
4 American Trail,Olszyna,59-830,bshier2g
55 Texas Way,Wentugaole,,hskayman2h
905 Corben Drive,Binulasan,6712,mhalsworth2i
023 Darwin Center,Ketawang,,nmerali2j
716 Division Road,Chicago,60652,jwoolmer2k
890 Dorton Circle,Dnestrovsc,MD-3352,afeavearyear2l
083 Ramsey Junction,Chongkan,,bpurrington2m
7 Manufacturers Hill,Oematnunu,,htomasutti2n
1805 Lien Place,Onguday,649446,jsamwyse2o
6414 Northwestern Circle,Kobryn,,rayerst2p
8929 Erie Center,Saltsjö-Boo,132 30,alouch2q
401 Chive Road,Campo Verde,78840-000,bpoulgreen2r
4229 Maple Wood Circle,Empangeni,3970,dmorman2s
658 6th Circle,Saint-Étienne,42055 CEDEX 2,bdowers2t
19160 Vidon Parkway,Grand Bois,,broscamp2u
566 Pennsylvania Place,Fuxi,,jberrey2v
6 Marquette Drive,Kabardinka,353480,rsandeson2w
37 Stuart Center,Pleshanovo,461150,klambal2x
87276 Bowman Alley,Kaduheuleut,,astovine2y
4 Blaine Court,Stavyshche,,eblewmen2z
2687 Myrtle Road,Maindang,1255,baicheson30
0270 Melvin Park,Kedawung,,ejeacop31
32607 Evergreen Plaza,Pétionville,,cbes32
08804 Bunting Place,Sacramento,95894,vcarlick33
6481 Nova Road,Licheng,,lzorener34
305 Straubel Trail,Cové,,jgerran35
79362 Maple Wood Crossing,Nāḩiyat Hīrān,,gbrydon36
2 Lunder Point,Veternik,,vollerton37
9 Marquette Circle,Nagua,10118,iallmark38
81338 Vidon Circle,Chŏngju,,btruckett39
62870 Mayer Park,Kapunduk,,tscholey3a
54 Jay Pass,Melrose,,agrafom3b
40 Mifflin Road,Xinbao,,mhedges3c
0 Logan Crossing,Pontevedra,6105,ahayles3d
84962 Pierstorff Crossing,Biguaçu,88160-000,beayres3e
0881 Hermina Drive,Pantanal,88000-000,gicom3f
00291 Bultman Crossing,Kurjan,,swixey3g
30 Elka Plaza,Almafuerte,3317,tcansfield3h
89104 Sommers Road,Bitola,7000,tcaley3i
96 Hoard Park,Pakham,92000,acolnet3j
37 Independence Park,Dulovo,7677,rwoodcraft3k
9563 Talisman Avenue,Vilar do Monte,4750-789,nzuppa3l
0 Swallow Drive,Dongting,,bsquibbes3m
95884 Karstens Lane,Dukuhsawah,,eregina3n
9108 Mariners Cove Park,Skhira,,abodley3o
51357 Corben Point,Namangan,,cdomino3p
9581 Bellgrove Court,Hiratachō,699-0644,mstoffler3q
415 Heffernan Alley,Gisiliba,,pdahlborg3r
575 Mayer Drive,Arīḩā,,rgreenhill3s
00 Pine View Trail,Zhaojia,,dholligan3t
685 Melody Hill,Bacalan,1110,mpratley3u
6 Sunnyside Trail,Xiangyun,,shulkes3v
077 Stang Circle,Galovac,43000,omcturley3w
186 Sutherland Hill,Mondim de Basto,4880-235,eduffyn3x
434 Mitchell Court,Semypolky,,fgipson3y
91959 Commercial Pass,Cincinnati,45254,gdegiovanni3z
4517 Glendale Alley,Pesochnoye,662360,mblinman40
56 Barnett Street,Morelos,62577,bkeneforde41
6 1st Way,Solosolo,,owhewell42
641 New Castle Pass,Ekenäs,35530,llaidlow43
63195 Golf Course Place,Mertert,L-6693,mubsdall44
46334 Cardinal Road,Fenglin,,wkearsley45
6322 Sauthoff Court,Kebonbencoy,,bsummersby46
664 Blue Bill Park Hill,Talisay,4602,ddimic47
092 Drewry Avenue,Hanting,,whaney48
74 Anniversary Place,Qingminghe,,jcusty49
0461 Lunder Junction,Bihoro,865-0122,wschoroder4a
4 Transport Parkway,Isehara,277-0883,trollinson4b
8284 Shopko Way,Scholkine,,msnaden4c
58502 Kenwood Parkway,Dieppe,76883 CEDEX,jbenninger4d
2 Mayer Point,Nová Paka,509 01,dmingaye4e
5 Norway Maple Crossing,São João del Rei,36300-000,btremoulet4f
8664 Mandrake Junction,Starobachaty,652685,skite4g
80 Chive Plaza,Borbon,6008,ecolley4h
9462 Tomscot Parkway,Nanxinxiang,,tviney4i
11 Heffernan Place,Kut Chum,18190,trubery4j
0 Mayfield Center,Beverwijk,1944,jabbate4k
438 Hazelcrest Drive,Ribeira Grande,9600-502,ldelacote4l
922 Bartelt Lane,Bela Vista,79260-000,cpinkney4m
25 Waubesa Point,Granja,4690-711,lkinnerk4n
2439 Gale Center,Katwijk,2228,bwellstood4o
45 Gateway Junction,Trat,46160,jwiddows4p
8896 Onsgard Terrace,Nurlat,446849,bprimmer4q
39 Stoughton Parkway,Santa Cruz,4820-560,pscowen4r
640 Arkansas Center,Putukrejo,,jeltone4s
8 Stoughton Park,Dallas,75323,tungerecht4t
32530 Vernon Court,Seredeyskiy,249295,sandriolli4u
06687 Morningstar Terrace,Jiancheng,,sheamus4v
270 Warrior Court,Szczawno-Zdrój,58-310,mlombardo4w
8 Arizona Way,Qal‘at al Andalus,,smadeley4x
758 Farwell Circle,Sairam,,gmontague4y
11 Marcy Park,Vardablur,,fgrainger4z
01 Bobwhite Lane,Casisang,1109,fpolycote50
5177 Moose Way,Sumberagung,,skay51
77 Ridgeview Avenue,Chenxikou,,eschwandermann52
804 Tennessee Circle,Dillenburg,35687,lwolfendell53
0913 Kennedy Way,Krajan,,jsorsbie54
220 Fallview Avenue,El Cobre,,awrigglesworth55
15 Fieldstone Court,Tidaholm,522 24,tpoplee56
08290 Brown Street,Kototujuh,,cclaypool57
5 Prentice Circle,Tancheng,,ghaydn58
604 Northland Hill,Sop Pong,30270,cwood59
50 Messerschmidt Center,Modimolle,539,lbartelet5a
045 Sunbrook Park,Qingxi,,chollyer5b
431 Artisan Place,Niepos,,sennor5c
70 North Plaza,Owen Sound,N4K,ogravatt5d
3 Valley Edge Place,Kowingir,,eslatter5e
31 Gateway Street,Tavira,8800-303,pcrowson5f
9 Melvin Drive,Gantang,,bhimpson5g
2466 Anzinger Road,Inari,99871,cealam5h
3 Hoard Trail,Al Majāridah,,baspey5i
79334 Arrowood Junction,Qi’an,,emcmarquis5j
4660 Killdeer Street,Boucinha,4950-122,dphippard5k
13 Magdeline Terrace,Huoshaodian,,tfriskey5l
55 Barnett Junction,Gävle,802 80,mblythin5m
0695 Main Hill,Toledo,43610,scoen5n
24217 Cordelia Trail,Ébolowa,,fsheffield5o
793 Buena Vista Pass,Colendra,,sdowning5p
19 Fremont Road,Yushan,,oredgrave5q
0 Sloan Court,Songhae,,cwarnes5r
4144 Independence Park,Nganane,,tneissen5s
937 Service Center,Posse,73900-000,efitzjohn5t
36 Macpherson Center,Tours,37082 CEDEX 2,vhatry5u
3927 Rieder Junction,Faqqū‘ah,,mscott5v
39540 Colorado Street,Savran’,,cprendiville5w
364 Coleman Avenue,Lajaluhur,,hpothecary5x
586 Hermina Road,Vito,1659,ssavine5y
336 Del Mar Terrace,Toyonaka,771-0217,rpennings5z
78102 Brown Alley,Nangang,,dbickle60
7 Forest Point,Chemnitz,9123,jforrestill61
94129 Farwell Court,Manas,368540,cdepper62
0 Magdeline Center,Skhira,,ndelyth63
1035 Valley Edge Road,Gierałtowice,44-186,eterron64
573 Beilfuss Way,Karangsari,,kmuat65
7840 Esch Place,Cisek,47-253,ebeatey66
402 Valley Edge Pass,Huadian,,jsantora67
1 Comanche Trail,Vila Velha de Ródão,6030-006,frollin68
8 Morning Point,Pijao,632067,rtinton69
7 Quincy Junction,Šipovo,,hcaldecot6a
76 Prentice Alley,Tamanar,,mstandish6b
797 Moose Park,Foso,,hseth6c
93238 Bartelt Plaza,Shejiang,,dfounds6d
953 West Road,Pilar do Sul,18185-000,iscarfe6e
3 4th Place,Sirre,,ahallyburton6f
6 Donald Plaza,Priob’ye,628126,amuselli6g
82455 Vera Terrace,Cañasgordas,57068,omarkwelley6h
2 Linden Road,Heshui,,bparzizek6i
3018 Eagan Crossing,Mirów,53-402,njoao6j
48 Hoffman Park,Canggetelo,,klant6k
543 Sloan Plaza,Agidel’,452941,kcarles6l
959 Killdeer Drive,Verdizela,2855-609,grostern6m
0 Oakridge Plaza,Ji’an,,gleese6n
75 Hauk Park,Azovo,646880,amullender6o
45455 Truax Lane,Bajia,,dboskell6p
3681 Birchwood Plaza,Pinhão,49517-000,cbullus6q
34 Hanover Avenue,Kozel’shchyna,,wleprovost6r
9256 Doe Crossing Avenue,Usicayos,,sthewless6s
17377 Birchwood Point,Dzików Stary,31-827,mgladding6t
00285 Luster Alley,Gävle,801 74,tjozsa6u
0965 Scott Avenue,Stockholm,118 92,adavidsson6v
79490 Summerview Parkway,Lukulu,,abryns6w
68 Maywood Place,Wanli,,ghellwing6x
12523 Hintze Court,Shanxi,,apersse6y
2 Cherokee Lane,Krasnogvardeyets,102469,sdomesday6z
1 Sutherland Court,Guandu,,hheustice70
389 Rigney Place,Croissy-sur-Seine,78294 CEDEX,rspellessy71
6 John Wall Lane,Mawu,,dbortolomei72
53 Lawn Point,Panique,8717,dharyngton73
78 Arkansas Pass,Oranzherei,416368,bsegeswoeth74
0 Crownhardt Park,Gostyń,63-816,adodson75
1191 International Street,Arraga,4206,amartin76
12124 Hanson Place,Padangsidempuan,,aranderson77
6196 Loomis Point,Zarechnyy,164020,lbridie78
63 Marquette Alley,Freiria,2040-105,ttetlow79
03964 Sutherland Point,Kansas City,64136,acoultas7a
441 Arkansas Plaza,San Luis,8511,aricard7b
12 Ohio Park,Chuantang,,mclague7c
76 Muir Hill,Krasnaya Poyma,140514,ymcdermid7d
9620 Shopko Street,Chuzhou,,pmccaw7e
47060 Brickson Park Court,Uścimów Stary,21-109,nguild7f
02 Crownhardt Circle,Ursynów,15-134,hkyttor7g
676 Jana Park,Bagan,632770,tthorneloe7h
5512 7th Pass,Kalapagada,,hparlatt7i
0343 High Crossing Circle,Tyoply Stan,391237,pmattusov7j
01337 Shopko Avenue,Kidangbang,,folynn7k
9 Maywood Trail,Bordeaux,33050 CEDEX,rmcarte7l
45 Quincy Junction,Sukawening,,jcardinal7m
453 Farmco Alley,Khao Yoi,76140,bbirnie7n
1 Sycamore Circle,Veiros,3860-346,cgonoude7o
1059 Mifflin Terrace,Raydah,,wpendrid7p
887 Golf Street,Al Qārah,,cstreetfield7q
888 Golf Course Plaza,Mqabba,MQB,lperon7r
3 Esker Drive,Vinhas,4575-062,csillis7s
8627 Evergreen Place,Ninh Hòa,,mmaccauley7t
4601 Nobel Court,Nam Som,41210,ehurcombe7u
8074 Goodland Court,Tama,5385,vgolder7v
43047 Chinook Crossing,Huangzhai,,acurle7w
57669 Pennsylvania Court,Khok Sung,27120,mstallon7x
5728 Pine View Court,Jiangwan,,vdaud7y
0 Kensington Way,Wucun,,egodbolt7z
11604 Sullivan Lane,Harar,,jromei80
195 Sherman Terrace,Pondokunyur,,ymcfater81
51 Coleman Trail,Aloleng,2408,mmaides82
0 Helena Junction,Roma,174,bshapland83
665 Manitowish Center,Rio Meão,4520-471,hbernucci84
427 Northport Trail,Gangdong,,blarcher85
52 Washington Trail,Gegernoong,,tterbrug86
8340 Golf View Lane,‘Ibwayn,,tcollelton87
22060 Monterey Hill,Saransk,430910,tmabbitt88
406 Spenser Road,El Progreso,,druprechter89
779 Manley Circle,Zarechnyy,456843,pprest8a
17 Pleasure Park,Reims,51679 CEDEX 2,cclemendot8b
42022 Swallow Point,Lankaran,,jeastby8c
8 Lerdahl Alley,Greater Napanee,K7R,cgroneway8d
05 Loomis Junction,Aquiraz,61700-000,bizsak8e
1 Sutherland Junction,Gueset,2436,mbrastead8f
49 Wayridge Junction,Vatutino,141032,sgoodsall8g
77 Fieldstone Drive,Thành phố Bạc Liêu,,oraffan8h
7465 Melby Drive,Malandag,1621,lambrogini8i
8490 Oak Valley Road,Varva,,tpressland8j
267 Tomscot Junction,Khuean Ubonrat,93180,drex8k
6 Carpenter Crossing,Jiangduo,,rbownd8l
2 Dwight Junction,Longhua,,wraison8m
885 Manufacturers Terrace,Blarney,P31,kvispo8n
44716 5th Trail,Quimper,29102 CEDEX,nthackston8o
0 Cottonwood Lane,Dongchengyuan,,mambrosi8p
75798 Cherokee Place,Fontana,3514,odragoe8q
8 Dottie Junction,Kalkal Barat,,bbrundrett8r
78915 Meadow Valley Trail,Cabano,T9H,cfreddi8s
0348 Bluejay Crossing,Mekarsari,,kkelmere8t
833 Carpenter Hill,Strellc i Epërm,,dbengough8u
2 Nevada Drive,Huixian Chengguanzhen,,vdupre8v
16511 Kingsford Parkway,Guiglo,,nsloey8w
57126 Colorado Terrace,Xuedian,,eeastbrook8x
8 Ludington Court,Miyazaki-shi,889-1716,cmarsden8y
3 Clemons Street,Grenoble,38051 CEDEX 9,afoyston8z
4345 Chinook Crossing,Canillo,AD100,ipelzer90
58573 North Junction,Brzeszcze,32-622,gpauletto91
58929 Bay Crossing,Tashtagol,652993,djewise92
6054 Mifflin Street,Shajing,,sgittings93
43 International Crossing,Dingyan,,croffe94
956 Norway Maple Plaza,Thị Trấn Sìn Hồ,,nwigelsworth95
7 Reindahl Street,Jinshan,,egoldsbury96
208 Boyd Drive,Krasnokumskoye,357834,hallom97
25 Sullivan Plaza,Nashtā Rūd,,bfillgate98
137 Grasskamp Street,Loma Bonita,62576,gkayser99
80 Nelson Hill,Samborondón,,rcadany9a
10428 Transport Plaza,Dubreuil,,jzannelli9b
88234 Havey Plaza,Daugavgrīva,,belwell9c
4 Dorton Terrace,Dokolo,,cmarten9d
28 Helena Hill,Mucuri,45930-000,bthorndale9e
2 Springview Park,Opočno,517 73,mgasson9f
21324 Messerschmidt Lane,Ladoang,,mdonnelly9g
5 Karstens Drive,Dougang,,nbloomer9h
21545 Luster Avenue,Guangshun,,imalthus9i
7 Namekagon Street,Jedlová,569 91,btschierse9j
053 Stang Court,Huangtugang,,ltaylder9k
63 Anzinger Crossing,Jindou,,ksimonian9l
61 Monica Parkway,Miān Channūn,24421,dloxton9m
2028 7th Crossing,Keboncau,,awhatman9n
6 Karstens Parkway,Vendychany,,sbolduc9o
9655 Farwell Place,Noenoni,,atrett9p
61 Lotheville Pass,Cicheng,,hantwis9q
19405 Mesta Alley,Baki,,dmckeevers9r
991 Bellgrove Junction,Quesada,21001,ctrouel9s
21099 Packers Junction,Makui,,rmarples9t
50108 Hudson Road,Tver,182647,bspaxman9u
761 Monterey Pass,Kirkop,KKP,gplumtree9v
0 School Pass,Jawatiwa,,ldemattia9w
3657 Hovde Terrace,Penanggapan,,mfurneaux9x
2 Forster Way,Yaozhou,,gpenhalewick9y
86 Fairfield Place,Ash Sharyah,,pteideman9z
556 Hallows Crossing,Si Thep,67170,tloughneya0
084 Wayridge Alley,Sapotskin,,badshedea1
8259 Mockingbird Trail,Alexandria,,mhustona2
214 Artisan Hill,Svalöv,268 32,jhallforda3
4 Old Shore Trail,Paradyż,26-333,bwhittocka4
59 Lotheville Way,Gunung Talang,,mfairbrassa5
5740 Rowland Terrace,Wolomoni,,sgottera6
0 Lotheville Way,Guisser,,uwhiteroda7
6 Atwood Alley,Tagawa,997-0753,amatussevicha8
57546 Dixon Road,Nam Đàn,,cgodspeedea9
2 Golf Center,Wuyang,,eparbrookaa
01533 Huxley Street,Stěbořice,747 51,arissoab
67 Mendota Hill,Mekarsari,,badamoac
6842 La Follette Court,Catungawan Sur,6310,denstonead
2 Manitowish Center,Uttaradit,71120,cbillettae
2911 Dwight Parkway,Bijeli,,ibolinoaf
72 Blue Bill Park Parkway,Stockholm,115 37,mfereag
042 Everett Center,Nyamanari,,amillikenah
2270 Reinke Circle,Shuangfeng,,kgiacominiai
1030 Rusk Road,Quillabamba,,jwoollardaj
3 Welch Park,San Diego,30302,epesak
785 Heath Street,Gongrong,,fleggenal
2 Fieldstone Court,Stockholm,102 46,sbernardonam
49 Basil Avenue,Fusagasuga,252219,fbuchananan
3 Kenwood Point,Tagnanan,6519,ydipietroao
7419 Harper Drive,San Emilio,2722,mtremolieresap
030 Village Hill,Huzhen,,jsheermanaq
4 Fairfield Street,Krajan Dua Putukrejo,,shallamar
1952 Laurel Parkway,Ríohacha,440017,kvennyas
3629 Sloan Circle,Dolgoderevenskoye,456510,myorkeat
19628 Larry Junction,Wola Sernicka,21-107,kproswellau
1 Ridgeview Center,London,W1F,cpollandav
542 Armistice Road,Shiyang,,lbausmannaw
232 Melvin Way,Nīkshahr,,tmarshallax
2030 Grover Way,Perelyub,413750,wcleefay
3 Bay Circle,Nipawin,V9B,ncottesfordaz
483 Di Loreto Park,Balingcanaway,1211,felphickb0
42 Golf View Drive,Caluquembe,,jmerveilleb1
69904 Jana Junction,Jiangjiazui,,afreiburgerb2
0770 Clyde Gallagher Hill,Belo,,lfalcusb3
3722 Messerschmidt Center,Granard,D09,fdillowb4
36097 Evergreen Center,El Doncello,181019,rmcwhinb5
2099 Atwood Plaza,Concepción,,dgavanb6
60 Warbler Center,Marcos,2907,tmylanb7
412 North Junction,Muang Pakxan,,jsootsb8
1 Dapin Road,Yogyakarta,,ddealeyb9
95 Forest Pass,Corcuera,5514,fgaunterba
7 Petterle Circle,Bergen op Zoom,4619,mdaftbb
3 Dawn Center,Tianmen,,adwirebc
6 Sheridan Plaza,Cipanas,,rpinillabd
43234 Esker Parkway,Chishan,,fpinelbe
89392 Shopko Crossing,Magdug,7300,gstedmanbf
280 Alpine Lane,Berezanka,,epatingtonbg
372 Goodland Circle,Hoeryŏng,,baylesburybh
0 Randy Crossing,Tlogowetan,,chundalbi
4 Sutteridge Drive,Maishi,,vbesekebj
07 Talisman Pass,Webuye,,dtaftbk
41 Kedzie Road,Weetombo,,rmadenbl
82005 Vera Court,Levoberezhnaya,141707,eausellobm
13788 Darwin Hill,Trabulheira,2420-369,fosirinbn
7 Hauk Point,Nynäshamn,149 43,lsidebo
625 Melody Place,Welibo,,gmorgenbp
1548 Laurel Point,Kipushi,,llaxenbq
50 Dunning Drive,Lolak,,arawetbr
78 Del Mar Avenue,Gongju,,ilaybs
9 Spohn Trail,Nanhe,,akrollebt
007 Glendale Road,Kuala Lumpur,50592,liacoviellobu
597 Crest Line Circle,Oslo,17,fklaffbv
18669 Clarendon Avenue,Lichengdao,,bfullombw
38252 Kim Court,Krajan,,rmetterickbx
9 Bellgrove Hill,Modot,,talcidoby
90 Menomonie Way,Kočevje,1330,hdozdillbz
7 Daystar Point,Horní Jiřetín,435 43,mprimoc0
6 Sheridan Trail,Zhongtai,,eteazc1
43338 Luster Crossing,Dārchulā,,plamacraftc2
87 Straubel Lane,Higashimurayama-shi,359-1144,sgenesec3
296 Rutledge Alley,Tumpang Satu,,ssaladinec4
0 Oakridge Street,Talavera,3114,hmallamc5
1 Green Ridge Plaza,Konkwesso,,prostronc6
00 Cody Road,Příbor,742 58,dbrydiec7
7 Mayfield Avenue,Arwād,,gsoughtonc8
21 Jana Place,Douentza,,mmatthewsc9
596 Ruskin Road,Gamut,8308,cbridleca
197 Swallow Street,Stockholm,116 92,kdizliecb
7 Cody Plaza,Praimarada,,shandfordcc
0 Browning Hill,Aqtoghay,,fserruriercd
349 Dapin Way,Stord,5406,arichardsce
50 Spenser Park,Mbandaka,,mproudlockcf
10211 Johnson Terrace,Cabeçudos,4770-073,ggabbottscg
14249 Arrowood Pass,Bambari,,dscempch
82594 Di Loreto Terrace,Lewokluok,,sbetteridgeci
46 Walton Plaza,Parakanpanjang,,jmawtuscj
15765 Hallows Lane,Kazimierz Dolny,24-120,adarkinck
546 Toban Place,Ditang,,wpyecroftcl
48 Nevada Drive,Sainte-Anne-de-Bellevue,H9X,gzannutocm
2 Cascade Pass,Naranjo,20601,mbrouardcn
95484 Bartillon Way,Cartago,762027,mlebarreco
995 Maple Wood Place,Banī Ḩassān,,worourkecp
80342 Lakewood Parkway,Aliuroba,,rmeerecq
84 Bay Crossing,Wushan,,cvasentsovcr
8 Sheridan Hill,Arapongas,86700-000,djeavonscs
71618 Goodland Hill,Rennes,35059 CEDEX,dsnookct
1342 Sutteridge Lane,Dayton,45432,tdelacicu
452 Cottonwood Crossing,Gao,,poronancv
9 Village Lane,Puerto Madryn,9120,naronsohncw
0159 Moose Hill,Ivry-sur-Seine,94209 CEDEX,efullagarcx
6 Cascade Hill,Las Vegas,,jquailcy
156 Rusk Plaza,Madolenihm Municipality Government,,mperrygocz
05 New Castle Center,San Miguel,8301,tabramowskyd0
6 Northwestern Way,Bayan Qagan,,dsabated1
5917 Cascade Terrace,Guluoshan,,mannwyld2
93 Sachtjen Court,Hōfu,747-1111,lbilhamd3
43 Sunnyside Junction,Strum,,wweaferd4
45282 Rockefeller Pass,Córdoba,523548,gcristold5
00447 Pankratz Road,Croix,59967 CEDEX,cjoubertd6
57 Green Ridge Park,Bayombong,3700,avelezd7
73 Scott Park,Cibeureum,,efransinellid8
912 High Crossing Parkway,Envigado,55428,lfarragherd9
137 Loeprich Terrace,Horad Krychaw,,emcclochda
7916 Spaight Plaza,Changuinola,,khoydb
61 Sauthoff Court,Keli,,jstlouisdc
44623 6th Alley,Fukuchiyama,620-1445,kbonwelldd
7 Jenna Drive,Wanli,,lhighnamde
39577 Linden Road,Zhoukou,,lvercruyssedf
9 Heffernan Junction,Altona,K1W,ihoulisondg
980 School Avenue,Nueva Helvecia,,jdronsfielddh
33835 Brickson Park Plaza,Banī Suwayf,,rpalatinidi
623 Merchant Hill,Voronezh,394075,rtiremandj
8 Merrick Hill,Viljandi,,mbobaschdk
7 Little Fleur Plaza,Parychy,,jfillsdl
565 Erie Park,Kikinda,,tbalchindm
427 Union Plaza,Uppsala,751 35,rphupratedn
01 Tomscot Circle,Neẖalim,,sgoselingdo
660 Express Place,Ivanec,42240,ngradleydp
145 Lillian Circle,Zhireken,673498,rhainsdq
22692 Brown Lane,Bantengan,,shopkynsondr
9 Bartelt Way,Dahay,9512,rgodboldds
0 Independence Lane,Betzdorf,L-6832,icotmoredt
24590 Swallow Alley,São Francisco do Sul,89240-000,dbeattydu
0359 Sugar Crossing,Gaomi,,tmackrielldv
586 Troy Crossing,Kukuna,,dsapirdw
5972 Garrison Hill,Jiangluo,,lmintramdx
93350 Daystar Point,Mulifanua,,jduforedy
1 Oakridge Road,Xiaogang,,ablankleydz
4774 Carioca Place,Valtelheiro,5350-064,civashine0
2751 Center Pass,Duantan,,rfaine1
521 Blaine Hill,Malaḩ,,vcarolinee2
5 Autumn Leaf Crossing,Bahorí,,tbande3
7 Spaight Parkway,Zhangzhu,,avoyseye4
83 High Crossing Street,Gosen,959-1851,bshotbolte5
6 Kim Terrace,São Paulo,01000-000,xgummowe6
237 Rusk Drive,Rizal,7104,aswinerde7
17 Corry Junction,Hvar,21450,pswyersexeye8
588 Pine View Junction,Tiebukenwusan,,okingzete9
71 Raven Street,La Mula,,mbumfreyea
556 Cherokee Crossing,Zhonghe,,craffeortyeb
7042 Miller Park,Reston,20195,srottcherec
10412 Goodland Place,Naprawa,34-721,precked
6 Bluestem Crossing,Jirkov,468 22,srigolleee
67019 Westend Pass,Hepingjie,,rjachtymef
73784 Waubesa Road,Zarichne,,gboatrighteg
39118 Lunder Plaza,Buenaventura,764517,btrahaireh
3 Sheridan Way,Gwangtan,,bmacmichaelei
82396 Messerschmidt Road,Shitang,,jstoopej
08 Lakewood Parkway,Tandzut,,amardleek
50708 Forest Dale Circle,Orly aérogare,94542 CEDEX,gthinnel
9203 Arrowood Junction,Krajan Jabungcandi,,psabathierem
90097 Sugar Street,Yantian,,lklischen
2654 Stuart Junction,San,,rflemyngeo
2631 Dunning Place,San Diego,3609,mchildsep
21 Delladonna Place,Gujiang,,rdunkseq
5959 Pleasure Street,Tambaksari,,vlarosaer
2915 Comanche Parkway,Gaohu,,anannies
32 Saint Paul Hill,Muzi,,bscattergoodet
835 Morrow Center,Kangasala,36270,htaboureu
6 Miller Center,Chlumčany,439 03,sklinerev
82669 Dunning Drive,Biruinţa,MD-6242,bblumireew
2494 Surrey Park,Maralal,,jcasementex
7264 Utah Park,Gesik,,bhendrikey
4798 Duke Avenue,Lalauigan,2900,kgastickeez
3497 Lake View Trail,Ketapang,,pgiacomuzzof0
86777 Pearson Street,Mboto,,amyersf1
422 Del Sol Trail,Tepusteca,,hspiref2
267 Norway Maple Drive,Berlin,12169,mblankmanf3
72800 Brentwood Plaza,Kiarajangkung,,nheadlyf4
0271 Helena Avenue,Charleston,25331,lmeltonf5
842 Warner Road,Petrolina de Goiás,75480-000,fcurneenf6
147 Jenifer Court,Dorchester,E4K,hbolandf7
89 Emmet Hill,Zgornje Bitnje,4220,gfolkertsf8
76 Buell Avenue,Martinópolis,19500-000,sharriganf9
0 Pepper Wood Hill,San Narciso,4313,hfulfordfa
73 American Ash Terrace,Praia de Mira,3070-725,bkobierzyckifb
1621 Forest Run Park,Sirari,,mleonardifc
7828 Summer Ridge Hill,Meijiang,,cwaszkiewiczfd
0 Brentwood Point,Węgliniec,59-940,tbraidonfe
917 Lotheville Place,Sukogunungkrajan,,labrahamsff
87942 Gulseth Center,Engure,,readyfg
9134 Sunfield Center,Mūsa Khel Bāzār,22011,rkinsleyfh
2832 Corscot Court,Morcolla,,mfardyfi
2 Walton Pass,Shuangfeng,,mblandfj
70042 Birchwood Place,Nong Hin,10250,mhathwayfk
9745 Heffernan Parkway,Shimokizukuri,802-0015,tlumleyfl
88297 Quincy Plaza,Budapest,1158,cknevetfm
6695 Oneill Drive,El Limón,,rdunwoodyfn
21 Division Street,Daitou,,pfarreilfo
485 Swallow Place,Calabugao,2721,kbenamfp
588 Lakewood Gardens Pass,Khanino,301420,nniessenfq
9226 Dapin Point,Luruaco,85068,abuggsfr
880 Maple Park,Tulsa,74193,bsweetenhamfs
90 Grayhawk Crossing,Cuenca,,bchevisft
8 Dakota Plaza,Granadero Baigorria,2152,imartinsfu
46812 Bayside Drive,Panyingkiran,,amoundfv
2 Bashford Center,Stockholm,118 65,wmalyjfw
15 Badeau Hill,Rizal,7104,drawlingfx
550 Hovde Road,Velykyy Klyuchiv,,bbuntainfy
9 Corry Circle,Santa Lucía Cotzumalguapa,5004,dhaggartfz
62 Shasta Way,Tianzhuang,,aredholeg0
3683 Kingsford Place,La Chapelle-sur-Erdre,44244 CEDEX,hquyeg1
54280 Crownhardt Way,Islamey,361538,lklessmanng2
93002 Victoria Point,Santo Amaro,44200-000,hgreenshieldsg3
99413 Canary Drive,Ilama,,emckirtong4
064 Northwestern Drive,Nyima,,lspellesyg5
4070 Victoria Alley,Rio Novo do Sul,29290-000,kletticeg6
9747 Springview Park,Panikihan,4307,preesong7
50137 Shasta Pass,Palagao Norte,918,ycowieg8
9 Shasta Center,Mets Parni,,chyndleyg9
339 Moland Drive,Badajoz,6010,tzorziniga
94163 Fremont Court,Longtou,,vperaccogb
52 Sachs Alley,Stockholm,115 91,nhewsgc
337 6th Street,Wierzawice,37-306,rpaulsengd
6 Westridge Crossing,Songkar B,,cmckeowonge
3 Warbler Pass,Don Matías,51858,stabordgf
7 Morning Place,Yanxi,,hcarisgg
6576 Namekagon Park,Pozuzo,,cellamsgh
62172 Eastwood Parkway,Motala,591 99,cheepsgi
3375 Village Green Center,Xinjian,,lstylesgj
96 Tennyson Avenue,Xingyi,,mveneurgk
41160 Sunnyside Hill,Pudoc,2519,gebbinggl
6970 Banding Point,Lembang,,ywoodburngm
2820 Elgar Crossing,Dongzhaogezhuang,,dbrisseaugn
9469 Arizona Avenue,Horad Krychaw,,jgrabertgo
35 Sage Parkway,Cuilco,13004,aromerilgp
7 Susan Parkway,Dahu Satu,,vwoodnuttgq
47 Hanover Park,Xiekou,,ldewersongr
6118 Hermina Parkway,Phonsavan,,aoxenhamgs
7471 Steensland Circle,Lin’an,,fbewfieldgt
3373 Lunder Circle,Taraan,,nkeymegu
574 Grayhawk Junction,Memphis,38197,rgirardettigv
880 Arapahoe Circle,Jamundí,764008,rarchambaultgw
46 Erie Pass,Pitogo,7033,cnodingx
7 Annamark Terrace,Burhānuddin,4743,rbowgengy
74180 Lunder Parkway,Tazarine,,ggannangz
319 Elgar Drive,Kalahang,,rtottieh0
45 Independence Crossing,Phimai,30110,psyderh1
4 Steensland Point,Dayr Mawās,,rswaith2
79 Eagan Street,Kedungbang,,mrobezh3
09 Stoughton Circle,Oula Xiuma,,gscotchbrookh4
63 Cottonwood Drive,Yongdong,,nkillshawh5
12 Steensland Place,Baruchowo,87-821,wduiganh6
16296 Boyd Terrace,Kapasan,,jcecih7
45 Sutteridge Road,Thị Trấn Nước Hai,,csandonh8
743 Bay Street,Aliuroba,,kbiasinih9
37373 Pine View Lane,Eirunepé,69880-000,mbrokenshawha
5233 4th Crossing,Marondera,,dlandsberghb
80 Calypso Terrace,Pattani,57000,cowbridgehc
976 Fairfield Lane,Pitanga,85200-000,ageavenyhd
15 Reinke Point,Duanjia,,rcordobeshe
49632 Goodland Hill,Solnice,517 01,kshotboulthf
6772 Annamark Hill,Ipaba,35198-000,bgeckhg
76 Gerald Junction,Katiola,,cpaishhh
5 Milwaukee Court,Sedati,,olevinghi
6367 Bashford Alley,Santa Inês,86660-000,vhughillhj
08 Clemons Way,Kavála,,fdamperhk
57974 Meadow Valley Alley,Liuche,,rsametthl
66336 Charing Cross Court,Tongjing,,fmckimmhm
86990 Dahle Way,Dharān Bāzār,,bromandhn
35 Bay Street,Tsarychanka,,tgockeho
37 Amoth Parkway,Dos Hermanas,41703,zsiemenshp
9631 Cardinal Trail,Huayucachi,,athebeauhq
9219 Caliangt Terrace,Orivesi,35301,mpaulazzihr
46122 Browning Park,Boshan,,hchastagnierhs
2869 Esker Way,Xuyong,,djohannessonht
050 Marcy Park,Hanyū,374-0055,tjiruhu
5860 Corben Terrace,Tigil’,688600,bshaperahv
8 Magdeline Hill,Bilajari,,vstoryhw
0 Kennedy Street,Dazhou,,cpadsonhx
9 Mcguire Pass,Xunqiao,,asemperhy
0 Eastwood Way,Tobatí,,gspeddinhz
86857 Delaware Court,Nūrābād,,isilvermanni0
5 Oakridge Court,Saint-Louis du Sud,,apainteri1
0982 Shoshone Plaza,Cibaregbeg,,mbilverstonei2
1170 Clarendon Trail,Big Bend,,ebrookwelli3
68917 Derek Plaza,Podporozh’ye,187789,ofortnami4
98951 Valley Edge Hill,Sukhirin,96190,bkeeleri5
57 Bayside Way,Monte da Pedra,7430-315,ameakesi6
2715 Hayes Parkway,Conde,58322-000,dnorewoodi7
1024 Basil Court,Padabeunghar,,zmorpheti8
8 Transport Terrace,Hua Hin,77110,labilowitzi9
9 Green Court,Golomunta,,ujollyia
27 Corscot Junction,Luhansk,,mhabershawib
5354 Vidon Circle,Suchen,,qarissic
9 Dapin Park,Cabarroguis,3400,cwhitefordid
55 Marquette Court,Monkayo,8111,gberriballie
4 Stang Junction,Hat Yai,90110,kcalfif
5 Lien Parkway,Tubajon,8426,cmcclellandig
9 Mayer Hill,Mertert,L-6693,nridingih
144 Myrtle Trail,Baliton,3102,hdeardenii
7 Brown Pass,Wanjiazhuang,,kborgij
2347 Muir Terrace,Shahe,,cmccawleyik
6740 Mallard Plaza,Suqiaoxiang,,eoheffernanil
9 Brentwood Hill,Guanlu,,blumbim
79296 Vermont Parkway,Sebina,,emorotin
60 Artisan Alley,Szamotuły,64-500,apredohlio
0 Vahlen Plaza,Villa de Soto,5284,tdumperip
2 Sunfield Alley,Aykhal,623506,byankeeviq
76121 Trailsway Hill,Telmin Suma,,cjanochir
45 Shoshone Place,San Rafael,5039,ndalgleishis
9 Gale Circle,Tongle,,fnorthleighit
090 Annamark Circle,Ambar,,psapsediu
343 Spaight Point,Gouping,,tcalteroneiv
2855 Doe Crossing Parkway,Pleszew,63-301,gredferniw
9 Larry Junction,Echeng,,ideeveyix
185 Stephen Way,Lanjaghbyur,,jhamelyniy
1819 Mockingbird Park,Mocoa,860008,mheinickeiz
906 School Pass,Tuchoměřice,252 67,abasekj0
06423 Straubel Lane,Loum,,swrightj1
746 Service Park,Boyany,,uhalversenj2
54 Hauk Circle,Sakassou,,iskaymanj3
92015 Lukken Street,Venda Nova,2970-841,doxleej4
5 Cascade Crossing,Aş Şūrah aş Şaghīrah,,lwilksj5
988 Debra Hill,Huangwan,,jwhardleyj6
4466 Kings Street,Mehrābpur,79051,bworkmanj7
90 Daystar Parkway,Racławice,32-222,mdowkerj8
2498 Orin Lane,Petrich,2889,dmillisj9
4 Amoth Road,Ryazanskiy,306824,mfennyja
60 Donald Alley,Curug,,uchettoejb
829 Valley Edge Street,Dajanrurung,,abrabbenjc
7951 Johnson Drive,Mallow,P51,lphillputjd
6 Arapahoe Way,Siyang,,wnertneyje
570 Portage Center,Lupao,3122,farmsdenjf
157 Killdeer Pass,Oymak,,atrowjg
93447 Logan Lane,Cabo Frio,28900-000,hanfonsijh
24403 Ridge Oak Parkway,Eisen,,hspierji
72 Little Fleur Terrace,Pokrovka,182160,mrussjj
470 Birchwood Point,Lemahputih,,showardgaterjk
214 Browning Avenue,Mosjøen,8657,brochfordjl
16 Sutteridge Avenue,Kerrobert,T1P,fjouhandeaujm
0 Forest Run Place,Arcueil,94114 CEDEX,zjakuszewskijn
100 Garrison Parkway,Longsheng,,stirtejo
4 Sundown Hill,Tudela,7202,vkilshalljp
54 Moulton Crossing,Atikokan,K1Y,jswidenbankjq
2 Harbort Avenue,Lucun,,mtrudgionjr
32041 Graedel Trail,Pieńsk,59-930,pkearneyjs
2 Mallory Way,Parikkala,59101,dpetlyurajt
3542 Eastwood Trail,Sundsvall,852 30,kpoutonju
1 Knutson Way,Sandefjord,3249,alepperjv
4 Fair Oaks Parkway,Issoire,63504 CEDEX,msalleryjw
0 Lillian Pass,Saryaghash,,jpearljx
03 Ridge Oak Park,Dunhua,,sbortoluttijy
5207 Fuller Place,Guangshun,,dvandenboschjz
814 Grayhawk Road,Mito-shi,319-0324,demmittk0
82177 Golf Center,Jojoima,,tmithunk1
450 Loomis Circle,Podsineye,655670,jgreenardk2
9 Debra Way,Bahuang,,randrzejakk3
82230 Forster Trail,Ovacik,35890,crickeardk4
15681 Main Plaza,Nikísiani,,zboheyk5
8031 Crest Line Parkway,Puyung,,mstourtonk6
93 8th Point,Yurino,425399,syanshinovk7
2353 Garrison Parkway,Mieścisko,62-290,wcaffk8
7 Twin Pines Pass,Houmen,,cpavelk9
13394 Upham Road,Ryazanskiy,671834,lversonka
41250 South Parkway,Patenongan,,wlarverkb
7 Riverside Parkway,Khrebtovaya,665683,iklementkc
2973 Morningstar Road,Hirado,276-0017,wcatlettekd
1015 Oneill Avenue,San Diego,92132,dplumbeke
66812 Carpenter Avenue,Starobaltachevo,452988,nfideluskf
23 Gulseth Center,Barkā’,,bsimmskg
38 Eagan Parkway,Nieying,,athewskh
832 Merchant Alley,Mloko,,mdubarryki
007 Lindbergh Place,Guararapes,16700-000,jmonketonkj
1 Loftsgordon Drive,Kropotkin,361012,lbrookzkk
113 Loomis Alley,Anzihao,,bsneddonkl
2219 Ridge Oak Court,Taoudenni,,nbroomkm
58 Drewry Terrace,Bozoum,,mhindshawkn
950 Columbus Avenue,San Juan,6227,arhymesko
12 Northfield Point,Yŏng-dong,,rstrodderkp
4941 Atwood Point,Babakankadu,,pbridelkq
37508 Londonderry Terrace,Nantes,44004 CEDEX 1,pbeetlestonekr
8392 Sachs Court,Klau,,peydelks
1 Northport Road,Villa Las Rosas,5875,pkimblenkt
3082 Ridgeway Hill,Neietsu,,gmalinsku
30202 Forster Street,Tsimasham,,etomeokv
90663 Stoughton Avenue,Guadalupe,70533,htwamleykw
2 Anhalt Lane,Pante Raja,,ksumpterkx
719 Schlimgen Avenue,Krasnodon,,liacomelliky
7 Hanover Hill,Flórina,,nmaierkz
12 6th Pass,Yao,701-0301,ddowl0
8435 Lyons Trail,Ciro Redondo,,asendsl1
77 Hooker Pass,Tsimlyansk,347320,ldanielsohnl2
373 Blackbird Plaza,Pangkajene,,fmeagherl3
595 Sherman Circle,Bodiosa a Velha,3515-517,estainburnl4
882 Paget Center,Urrô,4560-832,breinersl5
11 Veith Park,Paris 18,75863 CEDEX 18,hagassl6
82 Lerdahl Circle,Alvarães,69475-000,bfearnilll7
94588 Warbler Court,Arivonimamo,,ygogartyl8
003 Spenser Alley,Birmingham,35244,mgrocottl9
541 Independence Hill,Esperantina,77993-000,kbrittlebankla
6 Arapahoe Drive,Saihan Tal,,dhowdenlb
73 Shelley Junction,Xiangzhou,,hbiertonlc
69941 Reindahl Court,Or Yehuda,,sbthamld
4209 Sherman Circle,Sundsvall,855 90,fszymczykle
1156 Washington Circle,El Porvenir,93816,olylelf
1 Messerschmidt Avenue,Krajan,,tcarlucciolg
69397 Carioca Junction,Kořenov,468 49,sparringtonlh
0 Autumn Leaf Terrace,Itupiranga,68580-000,jmcculleyli
50501 Havey Point,Dhalie,,dbeamisslj
76156 Kim Parkway,Cuenca,,amckainlk
2663 Oakridge Pass,Zhukovo,249192,briggeardll
3359 Esker Center,Karajeun,,mmcilmorielm
73612 Bultman Pass,Congas,,sdickonln
459 Dixon Way,Syracuse,13205,amcpecklo
80691 Mitchell Center,Isfara,,nkinselllp
5 Corscot Court,Zhangcun,,ffinlaterlq
259 Mallory Crossing,Belisario Dominguez,30509,clevisonlr
62 Vermont Crossing,Sirib,6113,asunockls
11 Russell Trail,Bako,,lheartfieldlt
823 Annamark Pass,San Francisco,4655,lbonafacinolu
234 Gale Parkway,Borlänge,784 55,iwaileslv
59 Autumn Leaf Road,Ourozinho,3630-139,srivallandlw
8442 Marcy Lane,Marsaxlokk,MXK,bellingworthlx
0070 Rutledge Drive,Ngetkib,,ttibbly
29100 Old Gate Place,Guankou,,fnewartlz
914 4th Point,Andapa,,agollandm0
727 Bay Circle,Hongshan,,mboughenm1
98995 Artisan Circle,Karanganyar,,rjoustm2
0111 Marcy Alley,Utrecht (stad),3502,npetrosellim3
197 Meadow Vale Way,Nanjiao,,mledgerm4
4 Eastwood Avenue,Liuzikou,,cwichardm5
63997 Service Plaza,Buenavista,55635,scovendonm6
32 Cordelia Road,Chendong,,gcassinm7
29123 Kingsford Road,Dayton,45440,rmicheaum8
025 Jay Junction,San Francisco,94121,rmissenm9
361 Delladonna Way,Wanjiazhuang,,ggrennanma
5594 Troy Hill,Pueblo Nuevo,,ndudgeonmb
8826 Declaration Alley,Taitung City,,jgristwoodmc
54 Laurel Hill,La Jutosa,,epurcellmd
05602 Algoma Crossing,Trikora,,lkesonme
85082 Hanover Terrace,Kembang,,klimrickmf
5 Doe Crossing Plaza,Bugul’ma,358006,mkneathmg
145 Schiller Trail,Arroyo Salado,10214,rpeakmh
4505 Claremont Way,Hadāli,51801,cmccurleymi
38143 Farwell Point,Várzea da Serra,3610-193,ccharlsonmj
44 International Road,Skrwilno,87-510,nsewartmk
6942 Dennis Plaza,‘Arīqah,,vmachansml
82 Kingsford Center,Altos,,rdavidsohnmm
13283 Tony Parkway,Jatirejo,,mshaperamn
88098 Killdeer Parkway,Paghmān,,kkelemenmo
212 Corscot Hill,San José de Río Tinto,,scaruthmp
01639 Buena Vista Trail,Yoshikawa,990-0711,nbissetmq
46659 Spaight Junction,Dededo Village,96928,kfreshwatermr
3774 Mariners Cove Junction,Duifang,,greidems
10 Birchwood Court,Tandil,7000,mabyssmt
284 Haas Lane,Fort Worth,76198,jhaslochmu
0 Buhler Place,Nedakonice,687 38,jmacalpinemv
0083 Banding Way,Huilong,,wboyingtonmw
96238 Tennyson Center,Ambohitseheno,,nhannentmx
07721 Bultman Trail,Kristinehamn,681 84,ameatyardmy
41 Pennsylvania Trail,Shitang,,mticknermz
7290 Lerdahl Alley,Karvia,39930,jchessiln0
62622 Valley Edge Park,El Zulia,545518,aolliern1
89 Golf View Parkway,Chenfangji,,aschlagn2
97972 Ilene Point,Faqīrwāli,50601,nmacneiln3
7799 Mandrake Plaza,Aygeshat,,mdenzilown4
281 Surrey Road,Libas,9212,dmuckleyn5
4 Dapin Point,Oliveirinha,3810-856,ladamon6
016 Del Mar Plaza,Zhongnan,,cotuohyn7
0 Katie Road,Tobias Fornier,5716,iaeryn8
48 Prentice Way,Fengting,,blovickn9
91603 Sheridan Avenue,Jawatiwa,,ejordinena
83 Dwight Parkway,Pocokan Satu,,cpollastronenb
26 Arapahoe Center,Songjiang,,agautreync
0 Dixon Street,Hultsfred,577 32,dcridgend
3875 Kim Junction,Lizhai,,aallsuppne
38 Canary Parkway,Stockholm,112 40,hdundredgenf
83921 Schiller Place,Dongjia,,daschng
23466 Old Shore Lane,Shimonoseki,801-0885,plaitynh
06 Maple Place,Inglewood,90305,dcrouchni
4 Holmberg Parkway,Ancol,,tmelarkeynj
72427 Fairview Pass,Santa Rita Aplaya,4201,gbrissardnk
3 Melvin Trail,Svislach,,doharenl
486 Kings Avenue,Huazhuang,,dsawnm
17742 Doe Crossing Hill,Lavradio,2835-305,parringtonnn
223 Evergreen Junction,Sveg,842 93,abrandesno
7 Oakridge Drive,South River,P3Y,vbrockienp
93 Debs Circle,Vavatenina,,jdeboldnq
72 Lunder Plaza,Tatsuno,979-1501,aguillotnr
293 Golf Course Pass,Handegate,,mhorningns
70 Ohio Park,Đức Phong,,mtremainnt
2 Fisk Point,Limón,70101,edeverocknu
689 Bayside Center,Atabayan,5021,neddoesnv
9 Commercial Junction,Merke,,tbramblenw
617 Elmside Place,Bantawora,,wpesticcionx
0512 Sage Place,Kasimov,391360,ddanaherny
76 Leroy Place,Pradera,763558,scammockenz
44 Fuller Way,Tirmiz,,abenadetteo0
512 Sutherland Center,Cikole,,gbusto1
34522 Anderson Point,Taochuan,,pmelledyo2
663 Southridge Crossing,Paris 12,75604 CEDEX 12,lblackstero3
8346 Prairie Rose Trail,Keren,,ldorewardo4
37464 Rutledge Street,Zgurovka,,kchessello5
0 Harper Parkway,Drajak,,gcommingso6
59864 Valley Edge Junction,San Isidro,8421,ppyeo7
8235 Brickson Park Trail,Dzerzhinskiy,140083,wwando8
0755 Main Pass,Bălţi,MD-6222,rbauduino9
6 Columbus Way,Bolembre,2705-537,baluoa
9000 Karstens Plaza,Moravská Nová Ves,691 55,mvidgenob
10051 1st Place,Longtan,,treddieoc
62 Reindahl Avenue,Tha Mai,22120,bdockeryod
2225 Vidon Terrace,Atabayan,5021,mharpoe
67555 Barby Court,Nūbā,,gbargof
85438 Golden Leaf Hill,Danville,J0A,shatcherog
60883 Manitowish Avenue,Bilüü,,dgorriesoh
5 Eastwood Hill,Pisang,,sgandrichoi
1 Esch Circle,Chemerivtsi,,jhuittoj
58 Myrtle Trail,Aubenas,07204 CEDEX,mwawerok
4603 Jenna Court,Tubigan,9022,lcastillouol
0814 Hovde Plaza,Vales,3550-053,ldimmackom
5 Burning Wood Trail,Aigínio,,fgadneyon
2 Dunning Point,Poço Verde,49490-000,gpopleoo
16 Dahle Circle,Kommunar,346396,srahillop
4782 Daystar Parkway,São Roque,9500-701,tboneoq
7275 Corben Terrace,Wuying,,nfinlayor
7660 Bunting Court,Buštěhrad,273 43,cevaos
29552 Anniversary Avenue,Petit Valley,,mchominskiot
72736 Havey Way,Malaḩ,,bgianuzziou
654 New Castle Street,Uppsala,753 14,ahymerov
3 Karstens Road,Tataouine,,anewlandsow
52 Autumn Leaf Point,Tocumen,,pchambersox
07679 Di Loreto Lane,Cirangga Kidul,,cmckewoy
2430 Utah Alley,Huaquillas,,jgilardengooz
53 Union Circle,Barreiros,55560-000,rmatiasekp0
6 Farmco Alley,Nzega,,chambatchp1
9 Maple Center,Yichun,,lbilverstonep2
610 Lyons Alley,Montgomery,36104,sacockp3
1 Meadow Ridge Alley,Sambong,,dsaundersp4
26919 Marcy Way,Wuṯahpūr,,mpiscopiellop5
4324 Knutson Street,Yangjiang,,rpendletonp6
14 Eagan Hill,Kalabahi,,planglandp7
81 Evergreen Alley,Binkolo,,agradyp8
2 Morning Avenue,Da’ao,,hdillandp9
74555 Granby Pass,Olleros,,rsandelandpa
83 Heath Plaza,Tsaghkahovit,,fmeccopb
17 Darwin Avenue,Nanyi,,esimeonepc
3 Gulseth Hill,Pueblo,81010,jducepd
346 Tennyson Terrace,Zmiennica,36-212,bscotsonpe
317 Monterey Lane,Ḩāfiz̧ Moghul,,rbeinischpf
65 Maple Wood Drive,Zhugang,,lmarnspg
250 Village Center,Pangtangis Dajah,,hhurnellph
147 Cherokee Lane,Mardā,,cboylespi
16 Cascade Street,Gumalang,3312,eparrottpj
11592 Merchant Circle,Santo Tomé,5719,gmagogpk
35729 Goodland Crossing,Estreito,65975-000,ssignepl
095 Valley Edge Alley,Alcáçovas,7090-021,dmcbeathpm
820 Novick Lane,Fort-de-France,97204 CEDEX,sstathampn
247 Daystar Junction,San José de Comayagua,,byaldenpo
2052 Marquette Crossing,Lourdes,1114,mkaplanpp
1435 Miller Hill,Estancia,5017,mambrozpq
020 Tennessee Park,Nice,06293 CEDEX 3,aleftwichpr
1 Pleasure Street,Tākestān,,clammersps
154 Judy Court,Platičevo,,cdoerrlingpt
7 Washington Lane,Vänersborg,462 36,bnobbspu
1 Farmco Crossing,Sanhe,,klincepv
23 Algoma Junction,Volary,384 51,tmatthauspw
07 Glacier Hill Terrace,Antony,92762 CEDEX,bradishpx
08 Comanche Plaza,Paris 11,75522 CEDEX 11,cawtonpy
53242 Kings Place,São Luís,65000-000,ohavocpz
80 Hermina Street,Manggu,,sreinaq0
237 Crest Line Plaza,Swindon,SN1,blangdridgeq1
0472 Mendota Center,Takehara,992-0478,hdomsallaq2
8173 Hermina Court,Cowansville,J2K,nwiddupq3
1 Eagle Crest Place,Orekhovo-Borisovo,142717,mmcnirlinq4
2681 Mcbride Point,Amaigbo,,lteareq5
108 Karstens Plaza,Ḩawf,,ytenwickq6
38 Sutteridge Hill,Hội An,,gdyhouseq7
34 Hansons Circle,Wuquan,,ekondratenkoq8
3271 Petterle Court,Pokachi,403115,rmullaneq9
8 7th Center,Lijiapu,,massanteqa
7 Havey Lane,Leticia,910008,cocriganeqb
600 Cascade Pass,Pop Shahri,,kframptonqc
6791 Pankratz Point,Aparecida,12570-000,yglencorseqd
940 Arizona Hill,Yaqian,,amatysiakqe
6 Spohn Parkway,Pampamarca,,agrimwadeqf
19050 3rd Center,Hantsavichy,,tlongridgeqg
448 Clemons Street,Penhascoso,6120-625,wmaryetqh
860 Merrick Drive,Machinda,,garndellqi
378 Melrose Trail,Joinville,89200-000,etullisqj
6 American Ash Lane,Santa Ana Huista,13031,sbettensonqk
08693 Schiller Pass,Conselheiro Lafaiete,36400-000,kalphonsoql
17838 Buhler Parkway,Bayan-Ovoo,,dnewnsqm
4 Sachtjen Court,Liujiagou,,gwattinghamqn
2 Beilfuss Way,Esperanza,5131,khouldenqo
9526 Sunbrook Lane,Šilheřovice,747 15,equeneqp
6 Judy Hill,Moreno,54800-000,mbutlandqq
729 Golden Leaf Plaza,Baiyin,,hcruessqr
2311 Fair Oaks Terrace,Telsiai,87001,dburrageqs
06007 Declaration Center,Capelinha,39680-000,aofarrisqt
6575 Grasskamp Pass,Zhangshui,,tfonzoqu
51 Sloan Street,Quảng Yên,,acrinidgeqv
1451 Caliangt Trail,Sanshui,,rgonzalesqw
6148 Kropf Place,Strasbourg,67975 CEDEX 9,spalphreymanqx
8 Dwight Court,Huangjindong,,lbestarqy
1738 Grayhawk Lane,Domaniewice,99-434,wheggsqz
9 Bobwhite Drive,Rifu,981-0112,bharomer0
06 Vermont Court,Zhenziliang,,mdevennier1
9950 Warner Junction,Nowe Brzesko,32-120,mclubleyr2
36008 Sachs Lane,Antony,92169 CEDEX,bcluttonr3
82548 Butterfield Hill,Pidigan,2806,mburkwoodr4
772 4th Street,Mörön,,abullanr5
25603 Heath Center,Stoczek,07-104,anorthcliffer6
69 Susan Crossing,Mabugang,,abanbrigger7
9316 Golden Leaf Drive,Poço Verde,49490-000,warlettr8
1 Moose Center,Silver Spring,20910,jbendr9
809 Union Court,Antiguo Cuscatlán,,mchevolleaura
0 Mockingbird Road,Lanckorona,34-143,sduffitrb
1770 Fordem Alley,Malilipot,4510,tbuggyrc
2 Logan Lane,Courtaboeuf,91965 CEDEX,jgittensrd
1539 Lakewood Gardens Avenue,Sophia Antipolis,06905 CEDEX,mmciverre
6 Morningstar Plaza,Dagar,,llastrf
5 Oak Valley Pass,Jingtailu,,srowneyrg
7024 Esker Avenue,Qingyuan,,sboguerh
6751 Colorado Road,Jingguan,,jblowfelderi
3 Hudson Hill,Zhuangbu,,kdreganrj
55 Rusk Circle,Bachowice,34-116,cjaniszewskirk
0555 Packers Drive,Salerno,84135,msemensrl
812 Susan Center,Navan,D11,tstenbridgerm
1338 Harbort Crossing,Four Cross Roads,,bedginrn
6 Brickson Park Crossing,Trondheim,7479,oraddishro
6498 Daystar Court,Newlands,7700,bperfordrp
6 Mifflin Alley,Luokou,,rwestermanrq
109 Magdeline Way,Zhongdong,,ktonguerr
